{"lng":0.448855,"lat":51.5687,"postcode":"SS15 5AB"}
{"lng":0.43819,"lat":51.567966,"postcode":"SS15 5GL"}
{"lng":0.439705,"lat":51.567743,"postcode":"SS15 5GL"}
{"lng":0.445971,"lat":51.567954,"postcode":"SS15 5AD"}
{"lng":0.436999,"lat":51.567297,"postcode":"SS15 5GJ"}
{"lng":0.438565,"lat":51.568162,"postcode":"SS15 5GL"}
{"lng":0.437884,"lat":51.567393,"postcode":"SS15 5GL"}
{"lng":0.438329,"lat":51.568102,"postcode":"SS15 5GL"}
{"lng":0.449912,"lat":51.569032,"postcode":"SS15 5AS"}
{"lng":0.441488,"lat":51.567713,"postcode":"SS15 5DP"}
{"lng":0.452561,"lat":51.56913,"postcode":"SS14 1DJ"}
{"lng":0.45068,"lat":51.569175,"postcode":"SS15 5AA"}
{"lng":0.449923,"lat":51.569028,"postcode":"SS15 5AS"}
{"lng":0.451643,"lat":51.568984,"postcode":"SS15 5UL"}
{"lng":0.454114,"lat":51.568798,"postcode":"SS14 1DH"}
{"lng":0.456405,"lat":51.56848,"postcode":"SS14 1DQ"}
{"lng":0.454622,"lat":51.568694,"postcode":"SS14 1DH"}
{"lng":0.456146,"lat":51.567501,"postcode":"SS16 5XY"}
{"lng":0.456166,"lat":51.568543,"postcode":"SS14 1FH"}
{"lng":0.456555,"lat":51.568262,"postcode":"SS14 1FH"}
{"lng":0.456052,"lat":51.567377,"postcode":"SS16 5XY"}
{"lng":0.456452,"lat":51.566919,"postcode":"SS16 5GT"}
{"lng":0.456984,"lat":51.56702,"postcode":"SS16 5GT"}
{"lng":0.456192,"lat":51.566999,"postcode":"SS16 5AN"}
{"lng":0.45605,"lat":51.567148,"postcode":"SS16 5XY"}
{"lng":0.460616,"lat":51.567499,"postcode":"SS16 5GJ"}
{"lng":0.460405,"lat":51.567492,"postcode":"SS16 5GJ"}
{"lng":0.458015,"lat":51.567245,"postcode":"SS16 5GQ"}
{"lng":0.457485,"lat":51.567194,"postcode":"SS16 5GT"}
{"lng":0.460828,"lat":51.567293,"postcode":"SS16 5DA"}
{"lng":0.461446,"lat":51.566001,"postcode":"SS16 5DX"}
{"lng":0.462419,"lat":51.564399,"postcode":"SS16 5DU"}
{"lng":0.468383,"lat":51.564145,"postcode":"SS16 5JB"}
{"lng":0.465252,"lat":51.563856,"postcode":"SS16 5AA"}
{"lng":0.473474,"lat":51.564689,"postcode":"SS16 4AB"}
{"lng":0.471139,"lat":51.564374,"postcode":"SS16 4AF"}
{"lng":0.47334,"lat":51.564677,"postcode":"SS16 4AB"}
{"lng":0.473774,"lat":51.564188,"postcode":"SS16 4BJ"}
{"lng":0.463276,"lat":51.563922,"postcode":"SS16 5DF"}
{"lng":0.474407,"lat":51.564132,"postcode":"SS16 4BJ"}
{"lng":0.473822,"lat":51.564101,"postcode":"SS16 4BL"}
{"lng":0.474479,"lat":51.564141,"postcode":"SS16 4BJ"}
{"lng":0.474669,"lat":51.563954,"postcode":"SS16 4DZ"}
{"lng":0.476516,"lat":51.563105,"postcode":"SS16 4BT"}
{"lng":0.476534,"lat":51.563131,"postcode":"SS16 4BT"}
{"lng":0.47656,"lat":51.563104,"postcode":"SS16 4BT"}
{"lng":0.476688,"lat":51.563109,"postcode":"SS16 4BT"}
{"lng":0.475312,"lat":51.563433,"postcode":"SS16 4BS"}
{"lng":0.476571,"lat":51.563101,"postcode":"SS16 4BT"}
{"lng":0.475502,"lat":51.563389,"postcode":"SS16 4BS"}
{"lng":0.474216,"lat":51.564173,"postcode":"SS16 4BJ"}
{"lng":0.473894,"lat":51.564123,"postcode":"SS16 4BJ"}
{"lng":0.473114,"lat":51.564716,"postcode":"SS16 4AB"}
{"lng":0.469251,"lat":51.564285,"postcode":"SS16 5UZ"}
{"lng":0.474546,"lat":51.564144,"postcode":"SS16 4BJ"}
{"lng":0.471363,"lat":51.564483,"postcode":"SS16 4AF"}
{"lng":0.473516,"lat":51.56469,"postcode":"SS16 4AB"}
{"lng":0.466932,"lat":51.564065,"postcode":"SS16 5JB"}
{"lng":0.464418,"lat":51.56382,"postcode":"SS16 5AA"}
{"lng":0.464283,"lat":51.563782,"postcode":"SS16 5AA"}
{"lng":0.463915,"lat":51.562996,"postcode":"SS16 5JH"}
{"lng":0.462422,"lat":51.56165,"postcode":"SS16 5HN"}
{"lng":0.458681,"lat":51.560838,"postcode":"SS16 5EZ"}
{"lng":0.461432,"lat":51.561216,"postcode":"SS16 5HN"}
{"lng":0.458686,"lat":51.560809,"postcode":"SS16 5EZ"}
{"lng":0.459709,"lat":51.561037,"postcode":"SS16 5EW"}
{"lng":0.456858,"lat":51.560161,"postcode":"SS16 5GX"}
{"lng":0.456805,"lat":51.560167,"postcode":"SS16 5GX"}
{"lng":0.461694,"lat":51.56129,"postcode":"SS16 5HN"}
{"lng":0.460132,"lat":51.567487,"postcode":"SS16 5GJ"}
{"lng":0.463554,"lat":51.56265,"postcode":"SS16 5HL"}
{"lng":0.462854,"lat":51.564106,"postcode":"SS16 5DF"}
{"lng":0.460698,"lat":51.56747,"postcode":"SS16 5GJ"}
{"lng":0.46419,"lat":51.563755,"postcode":"SS16 5AA"}
{"lng":0.461524,"lat":51.565687,"postcode":"SS16 5DX"}
{"lng":0.460747,"lat":51.56734,"postcode":"SS16 5GJ"}
{"lng":0.463974,"lat":51.563845,"postcode":"SS16 5DF"}
{"lng":0.464205,"lat":51.563625,"postcode":"SS16 5AA"}
{"lng":0.457857,"lat":51.567278,"postcode":"SS16 5GT"}
{"lng":0.45689,"lat":51.567014,"postcode":"SS16 5GT"}
{"lng":0.456057,"lat":51.567092,"postcode":"SS16 5AN"}
{"lng":0.456343,"lat":51.567539,"postcode":"SS16 5XY"}
{"lng":0.456561,"lat":51.566902,"postcode":"SS16 5GT"}
{"lng":0.456243,"lat":51.566944,"postcode":"SS16 5AN"}
{"lng":0.456559,"lat":51.56758,"postcode":"SS16 5XY"}
{"lng":0.456116,"lat":51.567352,"postcode":"SS16 5XY"}
{"lng":0.456652,"lat":51.567576,"postcode":"SS16 5XY"}
{"lng":0.456636,"lat":51.567569,"postcode":"SS16 5XY"}
{"lng":0.456745,"lat":51.567565,"postcode":"SS16 5XY"}
{"lng":0.456853,"lat":51.567513,"postcode":"SS16 5XY"}
{"lng":0.456879,"lat":51.567454,"postcode":"SS16 5XY"}
{"lng":0.456867,"lat":51.567454,"postcode":"SS16 5XY"}
{"lng":0.456871,"lat":51.567465,"postcode":"SS16 5XY"}
{"lng":0.456875,"lat":51.567321,"postcode":"SS16 5GT"}
{"lng":0.456625,"lat":51.566968,"postcode":"SS16 5GT"}
{"lng":0.456395,"lat":51.566938,"postcode":"SS16 5GT"}
{"lng":0.456157,"lat":51.566989,"postcode":"SS16 5AN"}
{"lng":0.455998,"lat":51.567111,"postcode":"SS16 5AN"}
{"lng":0.456443,"lat":51.567856,"postcode":"SS16 5XY"}
{"lng":0.456781,"lat":51.567057,"postcode":"SS16 5GT"}
{"lng":0.456529,"lat":51.568482,"postcode":"SS14 1DQ"}
{"lng":0.451544,"lat":51.569391,"postcode":"SS15 5UL"}
{"lng":0.454668,"lat":51.5688,"postcode":"SS14 1DH"}
{"lng":0.452089,"lat":51.569436,"postcode":"SS14 1DJ"}
{"lng":0.451804,"lat":51.569465,"postcode":"SS15 5UL"}
{"lng":0.451625,"lat":51.568964,"postcode":"SS15 5UL"}
{"lng":0.45143,"lat":51.569244,"postcode":"SS15 5UL"}
{"lng":0.451819,"lat":51.567497,"postcode":"SS16 5GG"}
{"lng":0.452406,"lat":51.565506,"postcode":"SS16 5QD"}
{"lng":0.451773,"lat":51.568779,"postcode":"SS15 5UL"}
{"lng":0.45233,"lat":51.561005,"postcode":"SS16 5HE"}
{"lng":0.452483,"lat":51.561498,"postcode":"SS16 5HE"}
{"lng":0.453119,"lat":51.562979,"postcode":"SS16 5TQ"}
{"lng":0.452233,"lat":51.559452,"postcode":"SS16 5HD"}
{"lng":0.45235,"lat":51.5598,"postcode":"SS16 5HD"}
{"lng":0.452313,"lat":51.559544,"postcode":"SS16 5HD"}
{"lng":0.452561,"lat":51.559221,"postcode":"SS16 5EU"}
{"lng":0.452434,"lat":51.55959,"postcode":"SS16 5HD"}
{"lng":0.452662,"lat":51.559142,"postcode":"SS16 5EU"}
{"lng":0.451871,"lat":51.558968,"postcode":"SS16 5NL"}
{"lng":0.452288,"lat":51.558805,"postcode":"SS16 5NL"}
{"lng":0.452375,"lat":51.560616,"postcode":"SS16 5HD"}
{"lng":0.452393,"lat":51.560302,"postcode":"SS16 5HD"}
{"lng":0.452213,"lat":51.558807,"postcode":"SS16 5NL"}
{"lng":0.452522,"lat":51.558977,"postcode":"SS16 5NL"}
{"lng":0.45295,"lat":51.560964,"postcode":"SS16 5HE"}
{"lng":0.453385,"lat":51.561364,"postcode":"SS16 5HE"}
{"lng":0.453192,"lat":51.563094,"postcode":"SS16 5TQ"}
{"lng":0.452529,"lat":51.565412,"postcode":"SS16 5AX"}
{"lng":0.453397,"lat":51.561714,"postcode":"SS16 5HE"}
{"lng":0.452026,"lat":51.56733,"postcode":"SS16 5GG"}
{"lng":0.452238,"lat":51.56913,"postcode":"SS14 1DJ"}
{"lng":0.452047,"lat":51.56944,"postcode":"SS14 1DJ"}
{"lng":0.452227,"lat":51.569315,"postcode":"SS14 1DJ"}
{"lng":0.44962,"lat":51.569095,"postcode":"SS15 5AS"}
{"lng":0.449836,"lat":51.569138,"postcode":"SS15 5AS"}
{"lng":0.451277,"lat":51.569331,"postcode":"SS15 5UL"}
{"lng":0.448935,"lat":51.569664,"postcode":"SS15 5AH"}
{"lng":0.445163,"lat":51.572174,"postcode":"SS15 5EB"}
{"lng":0.447048,"lat":51.571066,"postcode":"SS15 5AP"}
{"lng":0.445543,"lat":51.572812,"postcode":"SS15 5JJ"}
{"lng":0.445561,"lat":51.572844,"postcode":"SS15 5JJ"}
{"lng":0.445577,"lat":51.57283,"postcode":"SS15 5JJ"}
{"lng":0.445546,"lat":51.572866,"postcode":"SS15 5JJ"}
{"lng":0.445542,"lat":51.572869,"postcode":"SS15 5JJ"}
{"lng":0.445086,"lat":51.57226,"postcode":"SS15 5EB"}
{"lng":0.447012,"lat":51.571044,"postcode":"SS15 5AP"}
{"lng":0.445464,"lat":51.572015,"postcode":"SS15 5AW"}
{"lng":0.448244,"lat":51.570215,"postcode":"SS15 5AJ"}
{"lng":0.44553,"lat":51.57285,"postcode":"SS15 5JJ"}
{"lng":0.445535,"lat":51.572859,"postcode":"SS15 5JJ"}
{"lng":0.449328,"lat":51.569128,"postcode":"SS15 5AH"}
{"lng":0.449459,"lat":51.569023,"postcode":"SS15 5AS"}
{"lng":0.450902,"lat":51.569186,"postcode":"SS15 5AA"}
{"lng":0.450042,"lat":51.569094,"postcode":"SS15 5AA"}
{"lng":0.451485,"lat":51.568974,"postcode":"SS15 5UL"}
{"lng":0.452282,"lat":51.565942,"postcode":"SS16 5GB"}
{"lng":0.452783,"lat":51.561754,"postcode":"SS16 5HE"}
{"lng":0.452353,"lat":51.56004,"postcode":"SS16 5HD"}
{"lng":0.451913,"lat":51.567139,"postcode":"SS16 5GE"}
{"lng":0.451787,"lat":51.568447,"postcode":"SS15 5AA"}
{"lng":0.452802,"lat":51.564155,"postcode":"SS16 5TH"}
{"lng":0.453189,"lat":51.562173,"postcode":"SS16 5HE"}
{"lng":0.452291,"lat":51.560664,"postcode":"SS16 5HD"}
{"lng":0.45231,"lat":51.559417,"postcode":"SS16 5HD"}
{"lng":0.45274,"lat":51.559119,"postcode":"SS16 5EU"}
{"lng":0.452897,"lat":51.559111,"postcode":"SS16 5EU"}
{"lng":0.452434,"lat":51.560678,"postcode":"SS16 5HD"}
{"lng":0.452892,"lat":51.559103,"postcode":"SS16 5EU"}
{"lng":0.452408,"lat":51.56034,"postcode":"SS16 5HD"}
{"lng":0.452544,"lat":51.559295,"postcode":"SS16 5EU"}
{"lng":0.452934,"lat":51.560972,"postcode":"SS16 5HE"}
{"lng":0.452826,"lat":51.55908,"postcode":"SS16 5EU"}
{"lng":0.453357,"lat":51.561321,"postcode":"SS16 5HE"}
{"lng":0.453236,"lat":51.563062,"postcode":"SS16 5TQ"}
{"lng":0.452711,"lat":51.564954,"postcode":"SS16 5UD"}
{"lng":0.452295,"lat":51.56651,"postcode":"SS16 5GF"}
{"lng":0.452683,"lat":51.570812,"postcode":"SS14 1FW"}
{"lng":0.45212,"lat":51.569528,"postcode":"SS14 1DJ"}
{"lng":0.452267,"lat":51.570399,"postcode":"SS14 1FW"}
{"lng":0.451923,"lat":51.567768,"postcode":"SS16 5GG"}
{"lng":0.454696,"lat":51.57139,"postcode":"SS14 1DY"}
{"lng":0.452313,"lat":51.56914,"postcode":"SS14 1DJ"}
{"lng":0.45515,"lat":51.571354,"postcode":"SS14 1DY"}
{"lng":0.455676,"lat":51.571278,"postcode":"SS14 1WW"}
{"lng":0.458465,"lat":51.571578,"postcode":"SS14 1JE"}
{"lng":0.458204,"lat":51.571543,"postcode":"SS14 1AH"}
{"lng":0.458324,"lat":51.572056,"postcode":"SS14 1AH"}
{"lng":0.458421,"lat":51.571947,"postcode":"SS14 1AH"}
{"lng":0.458123,"lat":51.572098,"postcode":"SS14 2AW"}
{"lng":0.457019,"lat":51.571996,"postcode":"SS14 2EA"}
{"lng":0.456299,"lat":51.572719,"postcode":"SS14 2BS"}
{"lng":0.457308,"lat":51.572021,"postcode":"SS14 2EA"}
{"lng":0.456083,"lat":51.573266,"postcode":"SS14 2BT"}
{"lng":0.456367,"lat":51.5737,"postcode":"SS14 2BU"}
{"lng":0.459678,"lat":51.574653,"postcode":"SS14 2DD"}
{"lng":0.458093,"lat":51.57434,"postcode":"SS14 2BZ"}
{"lng":0.459764,"lat":51.57578,"postcode":"SS14 2DH"}
{"lng":0.459577,"lat":51.575553,"postcode":"SS14 2DH"}
{"lng":0.462375,"lat":51.57673,"postcode":"SS14 2DR"}
{"lng":0.46237,"lat":51.576729,"postcode":"SS14 2DR"}
{"lng":0.461556,"lat":51.57656,"postcode":"SS14 2DW"}
{"lng":0.462416,"lat":51.576737,"postcode":"SS14 2DR"}
{"lng":0.462373,"lat":51.576725,"postcode":"SS14 2DR"}
{"lng":0.463266,"lat":51.576947,"postcode":"SS14 2DS"}
{"lng":0.463011,"lat":51.576883,"postcode":"SS14 2DS"}
{"lng":0.462947,"lat":51.577815,"postcode":"SS14 2JU"}
{"lng":0.461906,"lat":51.581574,"postcode":"SS14 2TT"}
{"lng":0.462279,"lat":51.579517,"postcode":"SS14 2TT"}
{"lng":0.462097,"lat":51.57996,"postcode":"SS14 2TT"}
{"lng":0.464162,"lat":51.582159,"postcode":"SS14 2LA"}
{"lng":0.462049,"lat":51.581757,"postcode":"SS14 2TT"}
{"lng":0.464341,"lat":51.582291,"postcode":"SS14 2LA"}
{"lng":0.464114,"lat":51.582514,"postcode":"SS14 3TJ"}
{"lng":0.464297,"lat":51.582434,"postcode":"SS14 3TJ"}
{"lng":0.460425,"lat":51.581837,"postcode":"SS14 3FT"}
{"lng":0.463609,"lat":51.582264,"postcode":"SS14 3TJ"}
{"lng":0.456929,"lat":51.58134,"postcode":"SS14 3FT"}
{"lng":0.456059,"lat":51.581471,"postcode":"SS14 3BE"}
{"lng":0.45565,"lat":51.581905,"postcode":"SS14 3BL"}
{"lng":0.455529,"lat":51.582254,"postcode":"SS14 3BL"}
{"lng":0.455622,"lat":51.582388,"postcode":"SS14 3BG"}
{"lng":0.457598,"lat":51.582789,"postcode":"SS14 3BX"}
{"lng":0.457702,"lat":51.582886,"postcode":"SS14 3BX"}
{"lng":0.45736,"lat":51.582745,"postcode":"SS14 3BX"}
{"lng":0.45716,"lat":51.584392,"postcode":"SS14 3BN"}
{"lng":0.456616,"lat":51.585637,"postcode":"SS14 3BY"}
{"lng":0.456487,"lat":51.585671,"postcode":"SS14 3BY"}
{"lng":0.456455,"lat":51.585653,"postcode":"SS14 3BY"}
{"lng":0.456527,"lat":51.585459,"postcode":"SS14 3BY"}
{"lng":0.456692,"lat":51.585387,"postcode":"SS14 3SD"}
{"lng":0.456447,"lat":51.585652,"postcode":"SS14 3BY"}
{"lng":0.456736,"lat":51.58539,"postcode":"SS14 3SD"}
{"lng":0.456463,"lat":51.585643,"postcode":"SS14 3BY"}
{"lng":0.456869,"lat":51.585271,"postcode":"SS14 3SD"}
{"lng":0.455283,"lat":51.582375,"postcode":"SS14 3BL"}
{"lng":0.457241,"lat":51.584214,"postcode":"SS14 3BN"}
{"lng":0.457715,"lat":51.582938,"postcode":"SS14 3BX"}
{"lng":0.455456,"lat":51.582447,"postcode":"SS14 3BG"}
{"lng":0.457638,"lat":51.58282,"postcode":"SS14 3BX"}
{"lng":0.455597,"lat":51.581775,"postcode":"SS14 3BL"}
{"lng":0.455708,"lat":51.581342,"postcode":"SS14 3BE"}
{"lng":0.456127,"lat":51.580832,"postcode":"SS14 3BE"}
{"lng":0.455681,"lat":51.581035,"postcode":"SS14 3BE"}
{"lng":0.455848,"lat":51.580872,"postcode":"SS14 3BE"}
{"lng":0.456559,"lat":51.581038,"postcode":"SS14 3BE"}
{"lng":0.463053,"lat":51.581991,"postcode":"SS14 2TT"}
{"lng":0.464702,"lat":51.582349,"postcode":"SS14 2LA"}
{"lng":0.464396,"lat":51.582237,"postcode":"SS14 2LA"}
{"lng":0.459279,"lat":51.581493,"postcode":"SS14 3FT"}
{"lng":0.470299,"lat":51.582683,"postcode":"SS14 2GN"}
{"lng":0.468284,"lat":51.582664,"postcode":"SS14 2GA"}
{"lng":0.46994,"lat":51.58274,"postcode":"SS14 2GN"}
{"lng":0.473684,"lat":51.583318,"postcode":"SS14 2FJ"}
{"lng":0.478277,"lat":51.583826,"postcode":"SS14 2PJ"}
{"lng":0.470785,"lat":51.582893,"postcode":"SS14 2FJ"}
{"lng":0.484919,"lat":51.584499,"postcode":"SS14 3JD"}
{"lng":0.482248,"lat":51.584215,"postcode":"SS14 2PB"}
{"lng":0.487999,"lat":51.584827,"postcode":"SS14 3GT"}
{"lng":0.491506,"lat":51.585186,"postcode":"SS14 3TS"}
{"lng":0.498747,"lat":51.585836,"postcode":"SS14 3RY"}
{"lng":0.495206,"lat":51.585683,"postcode":"SS14 3QX"}
{"lng":0.499057,"lat":51.585866,"postcode":"SS13 1LE"}
{"lng":0.4991,"lat":51.587662,"postcode":"SS13 1BS"}
{"lng":0.499027,"lat":51.586348,"postcode":"SS13 1BS"}
{"lng":0.499238,"lat":51.586021,"postcode":"SS13 1LE"}
{"lng":0.500194,"lat":51.592447,"postcode":"SS13 1SA"}
{"lng":0.499175,"lat":51.590214,"postcode":"SS14 3UF"}
{"lng":0.499306,"lat":51.589913,"postcode":"SS13 1BT"}
{"lng":0.499183,"lat":51.591434,"postcode":"SS14 3UF"}
{"lng":0.499965,"lat":51.592185,"postcode":"SS13 1SA"}
{"lng":0.499678,"lat":51.593393,"postcode":"SS12 0FH"}
{"lng":0.499552,"lat":51.593577,"postcode":"SS12 0FH"}
{"lng":0.499951,"lat":51.594059,"postcode":"SS12 0FH"}
{"lng":0.502738,"lat":51.594779,"postcode":"SS12 0QD"}
{"lng":0.506547,"lat":51.595619,"postcode":"SS12 0QB"}
{"lng":0.508654,"lat":51.597289,"postcode":"SS12 0QB"}
{"lng":0.513372,"lat":51.59904,"postcode":"SS12 0PZ"}
{"lng":0.510978,"lat":51.598387,"postcode":"SS12 0PZ"}
{"lng":0.518283,"lat":51.600145,"postcode":"SS12 9FG"}
{"lng":0.515747,"lat":51.599621,"postcode":"SS12 0PY"}
{"lng":0.52116,"lat":51.602057,"postcode":"SS12 9FL"}
{"lng":0.518851,"lat":51.600432,"postcode":"SS12 9FG"}
{"lng":0.523793,"lat":51.604198,"postcode":"SS12 9DP"}
{"lng":0.51858,"lat":51.600195,"postcode":"SS12 9FG"}
{"lng":0.523547,"lat":51.610565,"postcode":"SS12 9FY"}
{"lng":0.524066,"lat":51.608913,"postcode":"SS12 9LU"}
{"lng":0.524701,"lat":51.606583,"postcode":"SS12 9BW"}
{"lng":0.523643,"lat":51.610729,"postcode":"SS12 9FY"}
{"lng":0.523837,"lat":51.61083,"postcode":"SS12 9FY"}
{"lng":0.525116,"lat":51.61072,"postcode":"SS12 9AL"}
{"lng":0.524658,"lat":51.610554,"postcode":"SS12 9FU"}
{"lng":0.524426,"lat":51.610639,"postcode":"SS12 9FU"}
{"lng":0.525868,"lat":51.610786,"postcode":"SS12 9AL"}
{"lng":0.527202,"lat":51.610254,"postcode":"SS12 9RD"}
{"lng":0.528311,"lat":51.609676,"postcode":"SS12 9AR"}
{"lng":0.524602,"lat":51.610554,"postcode":"SS12 9FU"}
{"lng":0.528394,"lat":51.609611,"postcode":"SS12 9AR"}
{"lng":0.528229,"lat":51.609411,"postcode":"SS12 9AR"}
{"lng":0.526952,"lat":51.608468,"postcode":"SS12 9BB"}
{"lng":0.526802,"lat":51.609034,"postcode":"SS12 9AG"}
{"lng":0.527392,"lat":51.60922,"postcode":"SS12 9AG"}
{"lng":0.527085,"lat":51.608723,"postcode":"SS12 9AG"}
{"lng":0.526996,"lat":51.608496,"postcode":"SS12 9BB"}
{"lng":0.527152,"lat":51.608671,"postcode":"SS12 9BD"}
{"lng":0.52674,"lat":51.608983,"postcode":"SS12 9AG"}
{"lng":0.526881,"lat":51.608427,"postcode":"SS12 9BB"}
{"lng":0.527022,"lat":51.608534,"postcode":"SS12 9BB"}
{"lng":0.528449,"lat":51.609612,"postcode":"SS12 9AR"}
{"lng":0.527137,"lat":51.608633,"postcode":"SS12 9BB"}
{"lng":0.527981,"lat":51.609907,"postcode":"SS12 9RD"}
{"lng":0.526992,"lat":51.608783,"postcode":"SS12 9AG"}
{"lng":0.527159,"lat":51.608676,"postcode":"SS12 9BD"}
{"lng":0.528425,"lat":51.609567,"postcode":"SS12 9AR"}
{"lng":0.526771,"lat":51.608908,"postcode":"SS12 9AG"}
{"lng":0.528044,"lat":51.609318,"postcode":"SS12 9AG"}
{"lng":0.526728,"lat":51.609001,"postcode":"SS12 9AG"}
{"lng":0.526307,"lat":51.610739,"postcode":"SS12 9AL"}
{"lng":0.524704,"lat":51.610646,"postcode":"SS12 9FU"}
{"lng":0.523577,"lat":51.611215,"postcode":"SS12 9FW"}
{"lng":0.523852,"lat":51.611099,"postcode":"SS12 9FY"}
{"lng":0.523271,"lat":51.611223,"postcode":"SS12 9FW"}
{"lng":0.523012,"lat":51.611125,"postcode":"SS12 9FW"}
{"lng":0.523888,"lat":51.608964,"postcode":"SS12 9LU"}
{"lng":0.522898,"lat":51.610981,"postcode":"SS12 9FW"}
{"lng":0.523152,"lat":51.610727,"postcode":"SS12 9FY"}
{"lng":0.524488,"lat":51.605921,"postcode":"SS12 9DW"}
{"lng":0.522845,"lat":51.603482,"postcode":"SS12 9DP"}
{"lng":0.520321,"lat":51.601652,"postcode":"SS12 9FN"}
{"lng":0.51771,"lat":51.600443,"postcode":"SS12 0PS"}
{"lng":0.518061,"lat":51.600723,"postcode":"SS12 9FQ"}
{"lng":0.506972,"lat":51.595954,"postcode":"SS12 0QB"}
{"lng":0.511983,"lat":51.598762,"postcode":"SS12 0PZ"}
{"lng":0.509165,"lat":51.597727,"postcode":"SS12 0QB"}
{"lng":0.514752,"lat":51.599446,"postcode":"SS12 0PZ"}
{"lng":0.517313,"lat":51.600173,"postcode":"SS12 0PS"}
{"lng":0.504128,"lat":51.595079,"postcode":"SS12 0QD"}
{"lng":0.498441,"lat":51.593202,"postcode":"SS12 0FH"}
{"lng":0.500455,"lat":51.594495,"postcode":"SS12 0FH"}
{"lng":0.498269,"lat":51.592834,"postcode":"SS12 0FH"}
{"lng":0.498359,"lat":51.592576,"postcode":"SS12 0FH"}
{"lng":0.498679,"lat":51.592092,"postcode":"SS14 3EZ"}
{"lng":0.498828,"lat":51.591234,"postcode":"SS14 3UF"}
{"lng":0.498851,"lat":51.590852,"postcode":"SS14 3UF"}
{"lng":0.498436,"lat":51.58636,"postcode":"SS14 3RY"}
{"lng":0.498656,"lat":51.586688,"postcode":"SS14 3RY"}
{"lng":0.498779,"lat":51.588723,"postcode":"SS14 3EH"}
{"lng":0.498336,"lat":51.592831,"postcode":"SS12 0FH"}
{"lng":0.498866,"lat":51.591785,"postcode":"SS14 3UF"}
{"lng":0.490859,"lat":51.585264,"postcode":"SS14 3TS"}
{"lng":0.496181,"lat":51.58595,"postcode":"SS14 3DB"}
{"lng":0.493668,"lat":51.585596,"postcode":"SS14 3JL"}
{"lng":0.482329,"lat":51.584361,"postcode":"SS14 3TU"}
{"lng":0.4697,"lat":51.583142,"postcode":"SS14 3WN"}
{"lng":0.473966,"lat":51.583531,"postcode":"SS14 3AW"}
{"lng":0.47814,"lat":51.583928,"postcode":"SS14 3AW"}
{"lng":0.489149,"lat":51.585068,"postcode":"SS14 3JF"}
{"lng":0.485796,"lat":51.584736,"postcode":"SS14 3JD"}
{"lng":0.467413,"lat":51.582682,"postcode":"SS14 3WN"}
{"lng":0.470306,"lat":51.583283,"postcode":"SS14 3WN"}
{"lng":0.46399,"lat":51.582542,"postcode":"SS14 3TJ"}
{"lng":0.464272,"lat":51.582523,"postcode":"SS14 3TJ"}
{"lng":0.46331,"lat":51.582157,"postcode":"SS14 3WD"}
{"lng":0.463671,"lat":51.582321,"postcode":"SS14 3TJ"}
{"lng":0.456255,"lat":51.581364,"postcode":"SS14 3BE"}
{"lng":0.459807,"lat":51.58176,"postcode":"SS14 3FT"}
{"lng":0.455936,"lat":51.581346,"postcode":"SS14 3BE"}
{"lng":0.455716,"lat":51.581215,"postcode":"SS14 3BE"}
{"lng":0.455891,"lat":51.580849,"postcode":"SS14 3BE"}
{"lng":0.455708,"lat":51.581012,"postcode":"SS14 3BE"}
{"lng":0.456187,"lat":51.580812,"postcode":"SS14 3BE"}
{"lng":0.46211,"lat":51.57986,"postcode":"SS14 2TT"}
{"lng":0.456567,"lat":51.581023,"postcode":"SS14 3BE"}
{"lng":0.461811,"lat":51.581522,"postcode":"SS14 2TT"}
{"lng":0.461396,"lat":51.581739,"postcode":"SS14 2TT"}
{"lng":0.458143,"lat":51.581343,"postcode":"SS14 3FT"}
{"lng":0.461638,"lat":51.581718,"postcode":"SS14 2TT"}
{"lng":0.462246,"lat":51.579489,"postcode":"SS14 2TT"}
{"lng":0.462332,"lat":51.579418,"postcode":"SS14 2TT"}
{"lng":0.462773,"lat":51.579602,"postcode":"SS14 2TT"}
{"lng":0.463461,"lat":51.579647,"postcode":"SS14 2TT"}
{"lng":0.46351,"lat":51.579599,"postcode":"SS14 2TT"}
{"lng":0.462403,"lat":51.579326,"postcode":"SS14 2JS"}
{"lng":0.462957,"lat":51.577723,"postcode":"SS14 2JU"}
{"lng":0.462921,"lat":51.579622,"postcode":"SS14 2TT"}
{"lng":0.46368,"lat":51.576106,"postcode":"SS14 2JY"}
{"lng":0.46322,"lat":51.57465,"postcode":"SS14 2EH"}
{"lng":0.462511,"lat":51.579432,"postcode":"SS14 2TT"}
{"lng":0.463517,"lat":51.579605,"postcode":"SS14 2TT"}
{"lng":0.463228,"lat":51.574614,"postcode":"SS14 2EH"}
{"lng":0.463311,"lat":51.574821,"postcode":"SS14 2DU"}
{"lng":0.468519,"lat":51.575749,"postcode":"SS14 2HN"}
{"lng":0.463957,"lat":51.574542,"postcode":"SS14 2EH"}
{"lng":0.466658,"lat":51.574906,"postcode":"SS14 2EP"}
{"lng":0.470322,"lat":51.576998,"postcode":"SS14 2HL"}
{"lng":0.477002,"lat":51.578378,"postcode":"SS14 2NW"}
{"lng":0.471985,"lat":51.577439,"postcode":"SS14 2ET"}
{"lng":0.479896,"lat":51.581606,"postcode":"SS14 2PD"}
{"lng":0.475466,"lat":51.57775,"postcode":"SS14 2NL"}
{"lng":0.479347,"lat":51.582165,"postcode":"SS14 2NZ"}
{"lng":0.473269,"lat":51.577501,"postcode":"SS14 2NH"}
{"lng":0.479925,"lat":51.581703,"postcode":"SS14 2PD"}
{"lng":0.479009,"lat":51.582222,"postcode":"SS14 2NY"}
{"lng":0.47689,"lat":51.581983,"postcode":"SS14 2NU"}
{"lng":0.478381,"lat":51.580085,"postcode":"SS14 2PF"}
{"lng":0.47663,"lat":51.58116,"postcode":"SS14 2NS"}
{"lng":0.477116,"lat":51.579759,"postcode":"SS14 2NP"}
{"lng":0.476653,"lat":51.58191,"postcode":"SS14 2NT"}
{"lng":0.47651,"lat":51.579183,"postcode":"SS14 2NR"}
{"lng":0.476313,"lat":51.579079,"postcode":"SS14 2NR"}
{"lng":0.476433,"lat":51.579108,"postcode":"SS14 2NR"}
{"lng":0.476154,"lat":51.579185,"postcode":"SS14 2NR"}
{"lng":0.476064,"lat":51.579487,"postcode":"SS14 2NR"}
{"lng":0.476041,"lat":51.579674,"postcode":"SS14 2NR"}
{"lng":0.47703,"lat":51.579874,"postcode":"SS14 2NP"}
{"lng":0.476612,"lat":51.579894,"postcode":"SS14 2NP"}
{"lng":0.476834,"lat":51.579946,"postcode":"SS14 2NP"}
{"lng":0.47713,"lat":51.578562,"postcode":"SS14 2NN"}
{"lng":0.475875,"lat":51.577887,"postcode":"SS14 2NL"}
{"lng":0.473395,"lat":51.577531,"postcode":"SS14 2NH"}
{"lng":0.47131,"lat":51.577384,"postcode":"SS14 2ET"}
{"lng":0.477698,"lat":51.579577,"postcode":"SS14 2NP"}
{"lng":0.477829,"lat":51.579523,"postcode":"SS14 2PG"}
{"lng":0.469756,"lat":51.576692,"postcode":"SS14 2HL"}
{"lng":0.465579,"lat":51.574815,"postcode":"SS14 2HW"}
{"lng":0.467912,"lat":51.575422,"postcode":"SS14 2HN"}
{"lng":0.463329,"lat":51.574628,"postcode":"SS14 2EH"}
{"lng":0.462812,"lat":51.574248,"postcode":"SS14 2EH"}
{"lng":0.461194,"lat":51.574571,"postcode":"SS14 2DB"}
{"lng":0.459666,"lat":51.574599,"postcode":"SS14 2DD"}
{"lng":0.456477,"lat":51.573728,"postcode":"SS14 2BU"}
{"lng":0.46276,"lat":51.574211,"postcode":"SS14 2EH"}
{"lng":0.458305,"lat":51.574334,"postcode":"SS14 2BZ"}
{"lng":0.45606,"lat":51.573271,"postcode":"SS14 2BT"}
{"lng":0.456673,"lat":51.57214,"postcode":"SS14 2EA"}
{"lng":0.456664,"lat":51.572031,"postcode":"SS14 2EA"}
{"lng":0.456021,"lat":51.571897,"postcode":"SS14 2EA"}
{"lng":0.451722,"lat":51.56883,"postcode":"SS15 5UL"}
{"lng":0.454412,"lat":51.571503,"postcode":"SS14 2FR"}
{"lng":0.452017,"lat":51.570966,"postcode":"SS14 2FQ"}
{"lng":0.451443,"lat":51.569336,"postcode":"SS15 5UL"}
{"lng":0.451893,"lat":51.570572,"postcode":"SS15 5UL"}
{"lng":0.452645,"lat":51.564676,"postcode":"SS16 5UD"}
{"lng":0.451943,"lat":51.567046,"postcode":"SS16 5GE"}
{"lng":0.451837,"lat":51.567489,"postcode":"SS16 5GG"}
{"lng":0.451795,"lat":51.570867,"postcode":"SS15 5BW"}
{"lng":0.453211,"lat":51.562232,"postcode":"SS16 5HE"}
{"lng":0.452303,"lat":51.559378,"postcode":"SS16 5EU"}
{"lng":0.452333,"lat":51.560692,"postcode":"SS16 5HD"}
{"lng":0.452729,"lat":51.55907,"postcode":"SS16 5EU"}
{"lng":0.452627,"lat":51.559148,"postcode":"SS16 5EU"}
{"lng":0.452272,"lat":51.558774,"postcode":"SS16 5NL"}
{"lng":0.451862,"lat":51.558973,"postcode":"SS16 5NL"}
{"lng":0.452314,"lat":51.558761,"postcode":"SS16 5NL"}
{"lng":0.452476,"lat":51.558798,"postcode":"SS16 5NL"}
{"lng":0.452326,"lat":51.558768,"postcode":"SS16 5NL"}
{"lng":0.452398,"lat":51.55875,"postcode":"SS16 5NL"}
{"lng":0.45243,"lat":51.559503,"postcode":"SS16 5HD"}
{"lng":0.4524,"lat":51.560408,"postcode":"SS16 5HD"}
{"lng":0.45317,"lat":51.561047,"postcode":"SS16 5HE"}
{"lng":0.451957,"lat":51.567623,"postcode":"SS16 5GG"}
{"lng":0.452298,"lat":51.569243,"postcode":"SS14 1DJ"}
{"lng":0.45301,"lat":51.563836,"postcode":"SS16 5TH"}
{"lng":0.453367,"lat":51.56207,"postcode":"SS16 5HE"}
{"lng":0.452202,"lat":51.5694,"postcode":"SS14 1DJ"}
{"lng":0.451827,"lat":51.569488,"postcode":"SS15 5UL"}
{"lng":0.449617,"lat":51.569107,"postcode":"SS15 5AS"}
{"lng":0.449821,"lat":51.569131,"postcode":"SS15 5AS"}
{"lng":0.449108,"lat":51.569526,"postcode":"SS15 5AH"}
{"lng":0.449455,"lat":51.569197,"postcode":"SS15 5AS"}
{"lng":0.452483,"lat":51.565719,"postcode":"SS16 5AT"}
{"lng":0.447621,"lat":51.570709,"postcode":"SS15 5AP"}
{"lng":0.443073,"lat":51.572566,"postcode":"SS15 5ED"}
{"lng":0.445392,"lat":51.572103,"postcode":"SS15 5EB"}
{"lng":0.438771,"lat":51.57697,"postcode":"SS15 5JZ"}
{"lng":0.438736,"lat":51.577105,"postcode":"SS15 5JZ"}
{"lng":0.442877,"lat":51.572609,"postcode":"SS15 5ED"}
{"lng":0.439442,"lat":51.576185,"postcode":"SS15 5JS"}
{"lng":0.442252,"lat":51.574215,"postcode":"SS15 5HP"}
{"lng":0.442714,"lat":51.573046,"postcode":"SS15 5HR"}
{"lng":0.440934,"lat":51.57526,"postcode":"SS15 5JR"}
{"lng":0.439684,"lat":51.57753,"postcode":"SS15 5XU"}
{"lng":0.439823,"lat":51.577593,"postcode":"SS15 5XU"}
{"lng":0.440001,"lat":51.57746,"postcode":"SS15 5XU"}
{"lng":0.441698,"lat":51.57693,"postcode":"SS15 5XU"}
{"lng":0.441672,"lat":51.576957,"postcode":"SS15 5XU"}
{"lng":0.440446,"lat":51.577363,"postcode":"SS15 5XU"}
{"lng":0.440146,"lat":51.577386,"postcode":"SS15 5XU"}
{"lng":0.441676,"lat":51.576957,"postcode":"SS15 5XU"}
{"lng":0.441463,"lat":51.577025,"postcode":"SS15 5XU"}
{"lng":0.441719,"lat":51.576914,"postcode":"SS15 5XU"}
{"lng":0.439969,"lat":51.577489,"postcode":"SS15 5XU"}
{"lng":0.439916,"lat":51.577548,"postcode":"SS15 5XU"}
{"lng":0.43941,"lat":51.577314,"postcode":"SS15 5JS"}
{"lng":0.438468,"lat":51.577863,"postcode":"SS15 5JX"}
{"lng":0.438464,"lat":51.577734,"postcode":"SS15 5JX"}
{"lng":0.438723,"lat":51.577971,"postcode":"SS15 5JX"}
{"lng":0.438739,"lat":51.577204,"postcode":"SS15 5JZ"}
{"lng":0.438908,"lat":51.577202,"postcode":"SS15 5JZ"}
{"lng":0.44076,"lat":51.578357,"postcode":"SS15 5FS"}
{"lng":0.444172,"lat":51.579091,"postcode":"SS14 3AF"}
{"lng":0.443404,"lat":51.578827,"postcode":"SS15 5LY"}
{"lng":0.446125,"lat":51.579522,"postcode":"SS14 3BA"}
{"lng":0.438777,"lat":51.577979,"postcode":"SS15 5JX"}
{"lng":0.446533,"lat":51.579615,"postcode":"SS14 3BA"}
{"lng":0.449512,"lat":51.580139,"postcode":"SS14 3AY"}
{"lng":0.446334,"lat":51.579573,"postcode":"SS14 3BA"}
{"lng":0.453136,"lat":51.580636,"postcode":"SS14 3BP"}
{"lng":0.456628,"lat":51.581001,"postcode":"SS14 3BE"}
{"lng":0.456249,"lat":51.58079,"postcode":"SS14 3BE"}
{"lng":0.460931,"lat":51.581707,"postcode":"SS14 2TT"}
{"lng":0.45596,"lat":51.580822,"postcode":"SS14 3BE"}
{"lng":0.464023,"lat":51.582139,"postcode":"SS14 2LA"}
{"lng":0.457452,"lat":51.581213,"postcode":"SS14 3FT"}
{"lng":0.464303,"lat":51.582216,"postcode":"SS14 2LA"}
{"lng":0.46406,"lat":51.582651,"postcode":"SS14 3TJ"}
{"lng":0.465177,"lat":51.583574,"postcode":"SS14 3WE"}
{"lng":0.46418,"lat":51.582551,"postcode":"SS14 3TJ"}
{"lng":0.464404,"lat":51.582347,"postcode":"SS14 2LA"}
{"lng":0.465038,"lat":51.583507,"postcode":"SS14 3WE"}
{"lng":0.464096,"lat":51.58293,"postcode":"SS14 3TJ"}
{"lng":0.465191,"lat":51.583736,"postcode":"SS14 3WE"}
{"lng":0.464986,"lat":51.585695,"postcode":"SS14 3WB"}
{"lng":0.464054,"lat":51.58615,"postcode":"SS14 3WB"}
{"lng":0.464182,"lat":51.586145,"postcode":"SS14 3WB"}
{"lng":0.465195,"lat":51.58508,"postcode":"SS14 3WE"}
{"lng":0.463641,"lat":51.586177,"postcode":"SS14 3WB"}
{"lng":0.463509,"lat":51.586163,"postcode":"SS14 3WB"}
{"lng":0.464421,"lat":51.586126,"postcode":"SS14 3WB"}
{"lng":0.463457,"lat":51.586132,"postcode":"SS14 3WB"}
{"lng":0.46349,"lat":51.58607,"postcode":"SS14 3WB"}
{"lng":0.4644,"lat":51.586116,"postcode":"SS14 3WB"}
{"lng":0.464256,"lat":51.58614,"postcode":"SS14 3WB"}
{"lng":0.463975,"lat":51.586097,"postcode":"SS14 3WB"}
{"lng":0.464899,"lat":51.58379,"postcode":"SS14 3WE"}
{"lng":0.46369,"lat":51.586035,"postcode":"SS14 3WB"}
{"lng":0.465112,"lat":51.585436,"postcode":"SS14 3WB"}
{"lng":0.465138,"lat":51.584072,"postcode":"SS14 3WE"}
{"lng":0.464756,"lat":51.583677,"postcode":"SS14 3WE"}
{"lng":0.464777,"lat":51.583548,"postcode":"SS14 3WE"}
{"lng":0.46517,"lat":51.583468,"postcode":"SS14 3WE"}
{"lng":0.465231,"lat":51.582937,"postcode":"SS14 3WE"}
{"lng":0.465434,"lat":51.583413,"postcode":"SS14 3WE"}
{"lng":0.465523,"lat":51.583347,"postcode":"SS14 3WE"}
{"lng":0.465346,"lat":51.582959,"postcode":"SS14 3WE"}
{"lng":0.465387,"lat":51.58302,"postcode":"SS14 3WE"}
